{
  "type": "FeatureCollection",
  "name": "无人机飞行轨迹",
  "features": [
    {
      "type": "Feature",
      "properties": {"drone_id": "DJI-M300-01", "mission": "线路巡检", "altitude_m": 120, "speed_ms": 8},
      "geometry": {
        "type": "LineString",
        "coordinates": [
          [116.3150, 39.9100],
          [116.3160, 39.9110],
          [116.3170, 39.9115],
          [116.3180, 39.9120],
          [116.3190, 39.9125],
          [116.3200, 39.9130],
          [116.3210, 39.9135],
          [116.3220, 39.9140],
          [116.3230, 39.9145],
          [116.3240, 39.9150]
        ]
      }
    },
    {
      "type": "Feature",
      "properties": {"drone_id": "DJI-M300-02", "mission": "返航绕行", "altitude_m": 150, "speed_ms": 12},
      "geometry": {
        "type": "LineString",
        "coordinates": [
          [116.4000, 39.9500],
          [116.4010, 39.9505],
          [116.4020, 39.9500],
          [116.4030, 39.9490],
          [116.4040, 39.9480],
          [116.4050, 39.9470],
          [116.4050, 39.9460],
          [116.4040, 39.9455],
          [116.4030, 39.9450],
          [116.4020, 39.9455]
        ]
      }
    }
  ]
}
